[{"OBJECT_NAME":"STARLINK-30854","OBJECT_ID":"2023-171Q","EPOCH":"2026-03-09T22:53:09.229920","MEAN_MOTION":15.27137431,"ECCENTRICITY":0.00023812,"INCLINATION":42.9977,"RA_OF_ASC_NODE":283.8391,"ARG_OF_PERICENTER":39.8536,"MEAN_ANOMALY":320.249,"EPHEMERIS_TYPE":0,"CLASSIFICATION_TYPE":"U","NORAD_CAT_ID":58244,"ELEMENT_SET_NO":999,"REV_AT_EPOCH":12977,"BSTAR":0.00293725,"MEAN_MOTION_DOT":0.0008036,"MEAN_MOTION_DDOT":0},{"OBJECT_NAME":"OKEAN-1","OBJECT_ID":"1988-056A","EPOCH":"2026-03-09T21:19:04.260000","MEAN_MOTION":15.31672069,"ECCENTRICITY":0.00129431,"INCLINATION":82.4671,"RA_OF_ASC_NODE":262.7586,"ARG_OF_PERICENTER":168.0696,"MEAN_ANOMALY":192.0855,"EPHEMERIS_TYPE":0,"CLASSIFICATION_TYPE":"U","NORAD_CAT_ID":19274,"ELEMENT_SET_NO":999,"REV_AT_EPOCH":3511,"BSTAR":0.00038371192,"MEAN_MOTION_DOT":0.00011798,"MEAN_MOTION_DDOT":0}]
